ONEWEB-0694             
1 56722U 23068N   23247.01046863  .00002114  00000+0  28837-3 0  9995
2 56722  86.7204  96.7493 0013461 203.3376 156.7236 14.78124072 16573
ONEWEB-0696             
1 56723U 23068P   23247.16667824  .00000015  00000+0  00000+0 0  9994
2 56723  87.5511 101.6412 0009294 234.9026 294.4343 13.66223983 16220
ONEWEB-0703             
1 56724U 23068Q   23247.16667824  .00000015  00000+0  00000+0 0  9995
2 56724  87.6666 102.1431 0009095 232.0674  24.9678 13.54598285 16186
ONEWEB-0721             
1 56725U 23068R   23246.40774695  .00002900  00000+0  35272-3 0  9995
2 56725  86.6723  96.2406 0009649 200.7883 159.2949 14.83108530 15831
